<?xml version="1.0" encoding="UTF-8"?>
<gpx version="1.1" creator="Cycling Routes Test" xmlns="http://www.topografix.com/GPX/1/1">
  <metadata>
    <name>Costiera del Garda</name>
    <desc>Percorso costiero con tratti condivisi per testare sovrapposizioni</desc>
  </metadata>
  <trk>
    <name>Costiera del Garda</name>
    <type>cycling</type>
    <trkseg>
      <!-- Start: Near Desenzano -->
      <trkpt lat="45.4650" lon="10.5450"><ele>70</ele></trkpt>
      <trkpt lat="45.4680" lon="10.5490"><ele>72</ele></trkpt>
      <trkpt lat="45.4710" lon="10.5535"><ele>74</ele></trkpt>
      <trkpt lat="45.4740" lon="10.5580"><ele>76</ele></trkpt>
      <trkpt lat="45.4770" lon="10.5630"><ele>75</ele></trkpt>
      <trkpt lat="45.4795" lon="10.5685"><ele>74</ele></trkpt>
      <trkpt lat="45.4815" lon="10.5745"><ele>72</ele></trkpt>
      <trkpt lat="45.4830" lon="10.5805"><ele>70</ele></trkpt>
      <trkpt lat="45.4840" lon="10.5870"><ele>69</ele></trkpt>
      <trkpt lat="45.4845" lon="10.5940"><ele>68</ele></trkpt>
      <!-- Along the lakeside - shared segment with route 2 -->
      <trkpt lat="45.4720" lon="10.6080"><ele>68</ele></trkpt>
      <trkpt lat="45.4735" lon="10.6110"><ele>72</ele></trkpt>
      <trkpt lat="45.4755" lon="10.6145"><ele>78</ele></trkpt>
      <trkpt lat="45.4780" lon="10.6180"><ele>85</ele></trkpt>
      <trkpt lat="45.4805" lon="10.6220"><ele>92</ele></trkpt>
      <trkpt lat="45.4830" lon="10.6265"><ele>100</ele></trkpt>
      <!-- Continuing along coast -->
      <trkpt lat="45.4850" lon="10.6315"><ele>98</ele></trkpt>
      <trkpt lat="45.4865" lon="10.6370"><ele>95</ele></trkpt>
      <trkpt lat="45.4875" lon="10.6430"><ele>92</ele></trkpt>
      <trkpt lat="45.4880" lon="10.6490"><ele>88</ele></trkpt>
      <trkpt lat="45.4880" lon="10.6555"><ele>85</ele></trkpt>
      <trkpt lat="45.4875" lon="10.6620"><ele>82</ele></trkpt>
      <trkpt lat="45.4865" lon="10.6680"><ele>80</ele></trkpt>
      <trkpt lat="45.4850" lon="10.6740"><ele>78</ele></trkpt>
      <trkpt lat="45.4830" lon="10.6795"><ele>75</ele></trkpt>
      <trkpt lat="45.4805" lon="10.6845"><ele>73</ele></trkpt>
      <!-- Approaching Peschiera - shared with route 1 -->
      <trkpt lat="45.4590" lon="10.7130"><ele>92</ele></trkpt>
      <trkpt lat="45.4615" lon="10.7160"><ele>90</ele></trkpt>
      <trkpt lat="45.4640" lon="10.7180"><ele>88</ele></trkpt>
      <trkpt lat="45.4670" lon="10.7195"><ele>85</ele></trkpt>
      <trkpt lat="45.4700" lon="10.7200"><ele>83</ele></trkpt>
      <trkpt lat="45.4730" lon="10.7195"><ele>80</ele></trkpt>
      <trkpt lat="45.4760" lon="10.7180"><ele>78</ele></trkpt>
      <!-- Trail section inland -->
      <trkpt lat="45.4780" lon="10.7145"><ele>82</ele></trkpt>
      <trkpt lat="45.4795" lon="10.7100"><ele>88</ele></trkpt>
      <trkpt lat="45.4805" lon="10.7050"><ele>95</ele></trkpt>
      <trkpt lat="45.4810" lon="10.6995"><ele>102</ele></trkpt>
      <trkpt lat="45.4808" lon="10.6940"><ele>108</ele></trkpt>
      <trkpt lat="45.4800" lon="10.6885"><ele>112</ele></trkpt>
      <trkpt lat="45.4785" lon="10.6835"><ele>115</ele></trkpt>
      <trkpt lat="45.4765" lon="10.6790"><ele>118</ele></trkpt>
      <!-- Unpaved return -->
      <trkpt lat="45.4740" lon="10.6750"><ele>115</ele></trkpt>
      <trkpt lat="45.4710" lon="10.6715"><ele>110</ele></trkpt>
      <trkpt lat="45.4680" lon="10.6685"><ele>105</ele></trkpt>
      <trkpt lat="45.4645" lon="10.6660"><ele>100</ele></trkpt>
      <trkpt lat="45.4610" lon="10.6640"><ele>95</ele></trkpt>
      <trkpt lat="45.4575" lon="10.6625"><ele>90</ele></trkpt>
      <trkpt lat="45.4540" lon="10.6615"><ele>85</ele></trkpt>
      <trkpt lat="45.4505" lon="10.6610"><ele>82</ele></trkpt>
      <!-- Back to asphalt -->
      <trkpt lat="45.4470" lon="10.6600"><ele>80</ele></trkpt>
      <trkpt lat="45.4440" lon="10.6580"><ele>78</ele></trkpt>
      <trkpt lat="45.4415" lon="10.6550"><ele>76</ele></trkpt>
      <trkpt lat="45.4395" lon="10.6515"><ele>75</ele></trkpt>
      <trkpt lat="45.4380" lon="10.6475"><ele>74</ele></trkpt>
      <trkpt lat="45.4375" lon="10.6430"><ele>73</ele></trkpt>
      <trkpt lat="45.4380" lon="10.6385"><ele>72</ele></trkpt>
      <trkpt lat="45.4395" lon="10.6345"><ele>72</ele></trkpt>
      <trkpt lat="45.4420" lon="10.6310"><ele>71</ele></trkpt>
      <trkpt lat="45.4450" lon="10.6280"><ele>71</ele></trkpt>
      <!-- Final section -->
      <trkpt lat="45.4485" lon="10.6255"><ele>71</ele></trkpt>
      <trkpt lat="45.4520" lon="10.6235"><ele>70</ele></trkpt>
      <trkpt lat="45.4555" lon="10.6220"><ele>70</ele></trkpt>
      <trkpt lat="45.4590" lon="10.6210"><ele>70</ele></trkpt>
      <trkpt lat="45.4620" lon="10.6195"><ele>70</ele></trkpt>
      <trkpt lat="45.4645" lon="10.6170"><ele>70</ele></trkpt>
      <trkpt lat="45.4665" lon="10.6140"><ele>70</ele></trkpt>
      <trkpt lat="45.4680" lon="10.6105"><ele>70</ele></trkpt>
      <trkpt lat="45.4685" lon="10.6065"><ele>70</ele></trkpt>
      <trkpt lat="45.4680" lon="10.6025"><ele>70</ele></trkpt>
      <trkpt lat="45.4665" lon="10.5985"><ele>70</ele></trkpt>
      <trkpt lat="45.4650" lon="10.5950"><ele>70</ele></trkpt>
      <!-- Back to start area -->
      <trkpt lat="45.4640" lon="10.5920"><ele>70</ele></trkpt>
      <trkpt lat="45.4635" lon="10.5885"><ele>70</ele></trkpt>
      <trkpt lat="45.4640" lon="10.5850"><ele>70</ele></trkpt>
      <trkpt lat="45.4650" lon="10.5815"><ele>70</ele></trkpt>
      <trkpt lat="45.4665" lon="10.5780"><ele>70</ele></trkpt>
      <trkpt lat="45.4680" lon="10.5745"><ele>70</ele></trkpt>
      <trkpt lat="45.4690" lon="10.5705"><ele>70</ele></trkpt>
      <trkpt lat="45.4695" lon="10.5660"><ele>70</ele></trkpt>
      <trkpt lat="45.4690" lon="10.5615"><ele>70</ele></trkpt>
      <trkpt lat="45.4680" lon="10.5575"><ele>70</ele></trkpt>
      <trkpt lat="45.4665" lon="10.5535"><ele>70</ele></trkpt>
      <trkpt lat="45.4650" lon="10.5500"><ele>70</ele></trkpt>
      <trkpt lat="45.4650" lon="10.5450"><ele>70</ele></trkpt>
    </trkseg>
  </trk>
</gpx>
